sat00743
1 00743U 64004D   20046.88401481  .00000019  00000-0  21038-4 0  9992
2 00743  81.5189 258.0948 0174070 322.8023  46.5793 13.26470705711405
